[{"OBJECT_NAME":"STARLINK-2224","OBJECT_ID":"2021-041W","EPOCH":"2026-03-09T12:38:10.057920","MEAN_MOTION":15.30200941,"ECCENTRICITY":0.0001391,"INCLINATION":53.1574,"RA_OF_ASC_NODE":127.6957,"ARG_OF_PERICENTER":96.9661,"MEAN_ANOMALY":263.1498,"EPHEMERIS_TYPE":0,"CLASSIFICATION_TYPE":"U","NORAD_CAT_ID":48573,"ELEMENT_SET_NO":999,"REV_AT_EPOCH":26524,"BSTAR":0.00015382,"MEAN_MOTION_DOT":4.199e-5,"MEAN_MOTION_DDOT":0},{"OBJECT_NAME":"TRANSPORTER-10 OBJECT AD","OBJECT_ID":"2024-043AD","EPOCH":"2026-03-09T20:38:52.416960","MEAN_MOTION":15.34189901,"ECCENTRICITY":0.00089841,"INCLINATION":97.547,"RA_OF_ASC_NODE":207.3753,"ARG_OF_PERICENTER":221.4908,"MEAN_ANOMALY":138.5653,"EPHEMERIS_TYPE":0,"CLASSIFICATION_TYPE":"U","NORAD_CAT_ID":59125,"ELEMENT_SET_NO":999,"REV_AT_EPOCH":11202,"BSTAR":0.00036310552,"MEAN_MOTION_DOT":0.00011954,"MEAN_MOTION_DDOT":0}]
